STARLINK-36921          
1 68019U 26040E   26087.41684114  .00158635  00000+0  10420-2 0  9994
2 68019  97.2854  36.7942 0001629  79.1001 281.0448 15.75250508  4300
STARLINK-36928          
1 68020U 26040F   26087.29083680  .00356628  00000+0  22768-2 0  9993
2 68020  97.2864  36.6579 0001383 278.5451  81.5658 15.75358150  4284
STARLINK-36858          
1 68021U 26040G   26083.53835390  .00276588  00000+0  17848-2 0  9999
2 68021  97.2853  32.8877 0001694  78.8231 281.3225 15.75331784  3704
STARLINK-36916          
1 68022U 26040H   26087.50001156 -.01998452  00000+0 -19218-1 0  9992
2 68022  97.2855  36.8782 0001736  96.0719   7.7864 15.69592926  5459
STARLINK-36871          
1 68023U 26040J   26087.54248220  .00215055  00000+0  14016-2 0  9992
2 68023  97.2864  36.9263 0001065 118.7900 241.3472 15.75273661  4329
STARLINK-36891          
1 68024U 26040K   26087.41472421  .00395609  00000+0  25310-2 0  9994
2 68024  97.2869  36.7935 0001271 107.8398 252.3005 15.75201185  4302
STARLINK-36378          
1 68025U 26040L   26087.54036787  .00185675  00000+0  12150-2 0  9998
2 68025  97.2865  36.9321 0001395  81.9815 278.1608 15.75263620  4322
STARLINK-36884          
1 68026U 26040M   26087.54071813  .00230312  00000+0  14976-2 0  9995
2 68026  97.2866  36.9295 0001609 114.7147 245.4286 15.75284161  4327
STARLINK-36940          
1 68027U 26040N   26087.40483977  .00356569  00000+0  22942-2 0  9994
2 68027  97.2859  36.8147 0001187 129.2433 230.8938 15.75177622  4308
STARLINK-36253          
1 68028U 26040P   26087.50001156 -.02367727  00000+0 -78117-1 0  9997
2 68028  97.2847  36.3476 0002744  94.1051 201.0524 15.35148855  5553
STARLINK-36944          
1 68029U 26040Q   26087.53966382  .00249389  00000+0  16186-2 0  9990
2 68029  97.2872  36.9303 0001588  74.3679 285.7761 15.75275123  4327
STARLINK-36942          
1 68030U 26040R   26087.41190550  .00252752  00000+0  16453-2 0  9990
2 68030  97.2859  36.7998 0002514  59.1663 300.9849 15.75195173  4307
STARLINK-36913          
1 68031U 26040S   26087.50001156 -.01999101  00000+0 -23696-1 0  9999
2 68031  97.2850  36.8766 0001741  89.9056   3.9595 15.64455179  5459
STARLINK-36935          
1 68032U 26040T   26087.40626024  .00263567  00000+0  17134-2 0  9994
2 68032  97.2865  36.8097 0002601  63.1491 297.0040 15.75196843  4302
STARLINK-36947          
1 68033U 26040U   26087.47402060  .00268668  00000+0  17434-2 0  9994
2 68033  97.2846  36.8687 0002256  89.1296 271.0228 15.75224578  4312
STARLINK-36939          
1 68034U 26040V   26087.50001156 -.01998409  00000+0 -21953-1 0  9996
2 68034  97.2856  36.8923 0001873  99.1620  30.5878 15.66347303  5450
STARLINK-36943          
1 68035U 26040W   26087.40660625  .00299253  00000+0  19402-2 0  9993
2 68035  97.2846  36.8118 0001840  67.4897 292.6563 15.75160318  5433
STARLINK-36906          
1 68036U 26040X   26087.50001156 -.01990757  00000+0 -23144-1 0  9990
2 68036  97.2849  36.8855 0001868  97.0454  17.0831 15.64925111  5450
STARLINK-36388          
1 68037U 26040Y   26087.34343617  .00214176  00000+0  14008-2 0  9995
2 68037  97.2863  36.7428 0002666  73.5208 286.6350 15.75192231  4297
STARLINK-36895          
1 68038U 26040Z   26087.50001156  .00014478  00000+0  97875-4 0  9991
2 68038  97.2871  36.9008 0001481  84.5774  70.8663 15.75164659  5459
STARLINK-36373          
1 68039U 26040AA  26087.50001156 -.01983650  00000+0 -23738-1 0  9996
2 68039  97.2853  36.8791 0001907  94.5129   4.9240 15.64186513  5401
STARLINK-36711          
1 68040U 26041A   26086.97878242  .00281592  00000+0  17735-2 0  9991
2 68040  53.1584 331.0342 0001103  48.3262 311.7853 15.75330431  4107
STARLINK-36825          
1 68041U 26041B   26087.37272050  .00349327  00000+0  16943-2 0  9993
2 68041  53.1586 328.4921 0000992  86.0855 274.0281 15.80981304  4175
STARLINK-36925          
1 68042U 26041C   26086.91566657  .00271368  00000+0  17157-2 0  9999
2 68042  53.1582 331.3509 0001108  34.5526 325.5566 15.75272635  4093
STARLINK-36902          
1 68043U 26041D   26087.50001156  .00020751  00000+0  13944-3 0  9993
2 68043  53.1590 327.9157 0000945 111.7586 223.4321 15.75199096  5405
STARLINK-36966          
1 68044U 26041E   26087.22832848  .00439164  00000+0  26915-2 0  9996
2 68044  53.1594 329.7449 0000965  47.3445 312.7657 15.75504509  4147
STARLINK-36864          
1 68045U 26041F   26086.97424175  .00212742  00000+0  13529-2 0  9996
2 68045  53.1594 331.0045 0000626  96.4869 263.6222 15.75314871  4104
STARLINK-36321          
1 68046U 26041G   26087.39112844  .00216248  00000+0  13745-2 0  9996
2 68046  53.1589 328.6146 0001127  48.2054 311.9062 15.75315028  4172
STARLINK-36181          
1 68047U 26041H   26087.50001156  .00047706  00000+0  31419-3 0  9993
2 68047  53.1587 327.8625 0000948 113.8976 247.0255 15.75197329  5284
STARLINK-36318          
1 68048U 26041J   26086.97003064  .00260869  00000+0  16471-2 0  9991
2 68048  53.1595 330.9757 0000554 103.3119 256.7963 15.75333893  4102
STARLINK-36885          
1 68049U 26041K   26087.22348179  .00190652  00000+0  12154-2 0  9996
2 68049  53.1606 329.7110 0000602  76.6931 283.4156 15.75325535  4142
STARLINK-36945          
1 68050U 26041L   26087.50001156  .00050486  00000+0  33232-3 0  9991
2 68050  53.1589 327.9186 0000990  72.7327 260.6029 15.75185621  5409
STARLINK-35911          
1 68051U 26041M   26087.50001156  .00007672  00000+0  54262-4 0  9998
2 68051  53.1592 327.8659 0001399 117.7322 241.3554 15.75200181  5360
STARLINK-35808          
1 68052U 26041N   26087.39146830  .00423167  00000+0  26137-2 0  9994
2 68052  53.1583 328.6155 0003281  75.9597 284.1788 15.75372055  4174
STARLINK-36919          
1 68053U 26041P   26087.50001156  .00051954  00000+0  34176-3 0  9993
2 68053  53.1589 327.8123 0000553  85.3097 299.5173 15.75188344  5407
STARLINK-36924          
1 68054U 26041Q   26087.33334490 -.00151994  00000+0 -10029-2 0  9992
2 68054  53.1598 329.1175 0000963  93.4519 193.8950 15.75292418  5377
STARLINK-35998          
1 68055U 26041R   26087.38658904  .00268250  00000+0  16918-2 0  9992
2 68055  53.1587 328.5838 0000681  91.4090 268.7009 15.75337673  4171
STARLINK-36845          
1 68056U 26041S   26087.38204958  .00355798  00000+0  22151-2 0  9999
2 68056  53.1604 328.5534 0000284  77.7596 282.3456 15.75380179  4179
STARLINK-36954          
1 68057U 26041T   26087.15549951  .00136884  00000+0  88025-3 0  9996
2 68057  53.1602 329.9954 0000709  59.1227 300.9862 15.75304086  4133
STARLINK-36899          
1 68058U 26041U   26087.15128923  .00185538  00000+0  11837-2 0  9995
2 68058  53.1604 329.9661 0000876  79.8316 280.2803 15.75324541  4137
STARLINK-36917          
1 68059U 26041V   26087.50001156  .00045406  00000+0  29964-3 0  9993
2 68059  53.1576 328.1246 0001034 107.9686 124.2296 15.75173277  5408
STARLINK-36959          
1 68060U 26041W   26087.40053420  .00355748  00000+0  22159-2 0  9996
2 68060  53.1591 328.6754 0000980  94.7878 265.3254 15.75370372  4170
STARLINK-36915          
1 68061U 26041X   26087.25548793  .00380878  00000+0  23655-2 0  9996
2 68061  53.1600 329.1847 0001003  20.7198 339.3863 15.75365642  4152
STARLINK-36952          
1 68062U 26041Y   26087.08751718  .00252794  00000+0  15989-2 0  9997
2 68062  53.1601 330.2811 0000891  76.7876 283.3244 15.75318542  4121
STARLINK-37000          
1 68063U 26041Z   26087.38690050  .00313385  00000+0  19570-2 0  9996
2 68063  53.1599 328.5852 0001394 317.0373  43.0538 15.75433829  4173
STARLINK-36996          
1 68064U 26041AA  26087.50001156  .00066323  00000+0  43550-3 0  9997
2 68064  53.1588 327.7577 0000859  96.9544 313.7398 15.75129959  5409
STARLINK-36836          
1 68065U 26041AB  26087.50001156  .00026652  00000+0  17787-3 0  9992
2 68065  53.1587 327.7539 0000851  91.9790 320.5872 15.75188430  5409
STARLINK-36976          
1 68066U 26041AC  26087.07877066  .00350279  00000+0  21932-2 0  9997
2 68066  53.1584 330.2201 0001213  57.8964 302.2174 15.75266996  4123
STARLINK-36929          
1 68067U 26041AD  26087.40022132  .00283175  00000+0  17885-2 0  9993
2 68067  53.1587 328.6727 0001626  58.5752 301.5427 15.75261357  4176
STARLINK-36990          
1 68068U 26041AE  26086.97390754  .00262604  00000+0  12885-2 0  9992
2 68068  53.1586 330.2602 0000988  54.3772 305.7343 15.80964857  4111
STARLINK-36766          
1 68069U 26042A   26087.53562041  .00193851  00000+0  95950-3 0  9999
2 68069  53.1581 100.3296 0001077  70.3707 289.7432 15.80970025  5067
STARLINK-36823          
1 68070U 26042B   26087.28199709  .00340255  00000+0  16534-2 0  9992
2 68070  53.1585 101.5909 0001446  50.7660 309.3491 15.80964953  5020
STARLINK-36970          
1 68071U 26042C   26087.50001156  .00066756  00000+0  43739-3 0  9995
2 68071  53.1588 100.6207 0001087 120.5396 341.7281 15.75177056  5074
STARLINK-36972          
1 68072U 26042D   26087.53411131  .00335905  00000+0  16258-2 0  9997
2 68072  53.1575 100.3191 0000947 145.4718 214.6367 15.81061716  5062
STARLINK-37074          
1 68073U 26042E   26087.50001156  .00117292  00000+0  76108-3 0  9995
2 68073  53.1583 100.5109 0000970  88.5103  67.0968 15.75168585  5077
STARLINK-37045          
1 68074U 26042F   26086.48050108  .00073136  00000+0  47577-3 0  9999
2 68074  53.1596 105.8489 0002770  39.0243 321.0976 15.75302623  4891
STARLINK-37026          
1 68075U 26042G   26087.31469072  .00395035  00000+0  24526-2 0  9990
2 68075  53.1572 101.8074 0001196 100.7561 259.3594 15.75332790  5025
STARLINK-37023          
1 68076U 26042H   26087.49983687  .00211018  00000+0  13419-2 0  9990
2 68076  53.1578 100.8246 0001293 104.7292 255.3872 15.75320891  5052
STARLINK-37036          
1 68077U 26042J   26087.50016608  .00154193  00000+0  98885-3 0  9994
2 68077  53.1576 100.8271 0001347 121.5141 238.6011 15.75307434  5056
